[{"OBJECT_NAME":"STARLINK-36372","OBJECT_ID":"2026-035L","EPOCH":"2026-03-05T06:00:02.999808","MEAN_MOTION":15.9806746,"ECCENTRICITY":0.00011021,"INCLINATION":97.2742,"RA_OF_ASC_NODE":356.258,"ARG_OF_PERICENTER":129.1382,"MEAN_ANOMALY":219.8062,"EPHEMERIS_TYPE":0,"CLASSIFICATION_TYPE":"U","NORAD_CAT_ID":67889,"ELEMENT_SET_NO":999,"REV_AT_EPOCH":304,"BSTAR":-0.0021488302,"MEAN_MOTION_DOT":-0.00974564,"MEAN_MOTION_DDOT":0.0003058385},{"OBJECT_NAME":"STARLINK-36363","OBJECT_ID":"2026-035M","EPOCH":"2026-03-05T06:00:02.999808","MEAN_MOTION":15.97971389,"ECCENTRICITY":0.00010587,"INCLINATION":97.2746,"RA_OF_ASC_NODE":356.2571,"ARG_OF_PERICENTER":111.8581,"MEAN_ANOMALY":233.9198,"EPHEMERIS_TYPE":0,"CLASSIFICATION_TYPE":"U","NORAD_CAT_ID":67890,"ELEMENT_SET_NO":999,"REV_AT_EPOCH":304,"BSTAR":-0.0021553568,"MEAN_MOTION_DOT":-0.0097237,"MEAN_MOTION_DDOT":0.00030424509},{"OBJECT_NAME":"STARLINK-36816","OBJECT_ID":"2026-035N","EPOCH":"2026-03-05T04:18:18.457056","MEAN_MOTION":15.99682736,"ECCENTRICITY":0.00016141,"INCLINATION":97.2738,"RA_OF_ASC_NODE":356.2032,"ARG_OF_PERICENTER":175.2472,"MEAN_ANOMALY":184.8822,"EPHEMERIS_TYPE":0,"CLASSIFICATION_TYPE":"U","NORAD_CAT_ID":67891,"ELEMENT_SET_NO":999,"REV_AT_EPOCH":312,"BSTAR":-0.00087870329,"MEAN_MOTION_DOT":-0.00437906,"MEAN_MOTION_DDOT":7.0037953e-5},{"OBJECT_NAME":"STARLINK-36813","OBJECT_ID":"2026-035P","EPOCH":"2026-03-05T04:24:43.960032","MEAN_MOTION":15.99104641,"ECCENTRICITY":8.02e-5,"INCLINATION":97.2727,"RA_OF_ASC_NODE":356.1986,"ARG_OF_PERICENTER":130.2811,"MEAN_ANOMALY":229.8538,"EPHEMERIS_TYPE":0,"CLASSIFICATION_TYPE":"U","NORAD_CAT_ID":67892,"ELEMENT_SET_NO":999,"REV_AT_EPOCH":312,"BSTAR":-0.00055436508,"MEAN_MOTION_DOT":-0.0026785,"MEAN_MOTION_DDOT":2.8164831e-5},{"OBJECT_NAME":"STARLINK-36803","OBJECT_ID":"2026-035Q","EPOCH":"2026-03-05T06:00:02.999808","MEAN_MOTION":15.98148765,"ECCENTRICITY":9.924e-5,"INCLINATION":97.2742,"RA_OF_ASC_NODE":356.2599,"ARG_OF_PERICENTER":111.2174,"MEAN_ANOMALY":242.5057,"EPHEMERIS_TYPE":0,"CLASSIFICATION_TYPE":"U","NORAD_CAT_ID":67893,"ELEMENT_SET_NO":999,"REV_AT_EPOCH":304,"BSTAR":-0.0021413879,"MEAN_MOTION_DOT":-0.0097554,"MEAN_MOTION_DDOT":0.0003066847},{"OBJECT_NAME":"STARLINK-36846","OBJECT_ID":"2026-035R","EPOCH":"2026-03-05T06:00:02.999808","MEAN_MOTION":15.98354503,"ECCENTRICITY":0.00010284,"INCLINATION":97.2737,"RA_OF_ASC_NODE":356.2639,"ARG_OF_PERICENTER":113.6422,"MEAN_ANOMALY":249.8287,"EPHEMERIS_TYPE":0,"CLASSIFICATION_TYPE":"U","NORAD_CAT_ID":67894,"ELEMENT_SET_NO":999,"REV_AT_EPOCH":304,"BSTAR":-0.0021702744,"MEAN_MOTION_DOT":-0.00999829,"MEAN_MOTION_DDOT":0.0003217229},{"OBJECT_NAME":"STARLINK-36866","OBJECT_ID":"2026-035S","EPOCH":"2026-03-05T04:27:58.576032","MEAN_MOTION":15.98803356,"ECCENTRICITY":6.245e-5,"INCLINATION":97.2738,"RA_OF_ASC_NODE":356.1972,"ARG_OF_PERICENTER":49.4563,"MEAN_ANOMALY":310.6769,"EPHEMERIS_TYPE":0,"CLASSIFICATION_TYPE":"U","NORAD_CAT_ID":67895,"ELEMENT_SET_NO":999,"REV_AT_EPOCH":312,"BSTAR":-0.00055849309,"MEAN_MOTION_DOT":-0.00265345,"MEAN_MOTION_DDOT":2.7601011e-5},{"OBJECT_NAME":"STARLINK-36877","OBJECT_ID":"2026-035T","EPOCH":"2026-03-05T06:00:02.999808","MEAN_MOTION":15.98253994,"ECCENTRICITY":9.259e-5,"INCLINATION":97.2738,"RA_OF_ASC_NODE":356.2618,"ARG_OF_PERICENTER":92.2113,"MEAN_ANOMALY":266.5728,"EPHEMERIS_TYPE":0,"CLASSIFICATION_TYPE":"U","NORAD_CAT_ID":67896,"ELEMENT_SET_NO":999,"REV_AT_EPOCH":304,"BSTAR":-0.0021565894,"MEAN_MOTION_DOT":-0.00988094,"MEAN_MOTION_DDOT":0.00031441215},{"OBJECT_NAME":"STARLINK-36870","OBJECT_ID":"2026-035U","EPOCH":"2026-03-05T04:26:45.465216","MEAN_MOTION":15.98875422,"ECCENTRICITY":0.00014745,"INCLINATION":97.2734,"RA_OF_ASC_NODE":356.1978,"ARG_OF_PERICENTER":164.0686,"MEAN_ANOMALY":196.0639,"EPHEMERIS_TYPE":0,"CLASSIFICATION_TYPE":"U","NORAD_CAT_ID":67897,"ELEMENT_SET_NO":999,"REV_AT_EPOCH":312,"BSTAR":-0.00027356599,"MEAN_MOTION_DOT":-0.00130907,"MEAN_MOTION_DDOT":8.543024e-6},{"OBJECT_NAME":"STARLINK-36810","OBJECT_ID":"2026-035V","EPOCH":"2026-03-05T04:25:46.762464","MEAN_MOTION":15.99023979,"ECCENTRICITY":0.00010746,"INCLINATION":97.2736,"RA_OF_ASC_NODE":356.197,"ARG_OF_PERICENTER":155.2379,"MEAN_ANOMALY":204.8951,"EPHEMERIS_TYPE":0,"CLASSIFICATION_TYPE":"U","NORAD_CAT_ID":67898,"ELEMENT_SET_NO":999,"REV_AT_EPOCH":312,"BSTAR":-0.00074936082,"MEAN_MOTION_DOT":-0.00360093,"MEAN_MOTION_DDOT":4.8323384e-5},{"OBJECT_NAME":"STARLINK-36878","OBJECT_ID":"2026-035W","EPOCH":"2026-03-05T04:23:50.347968","MEAN_MOTION":15.9929355,"ECCENTRICITY":0.00015192,"INCLINATION":97.273,"RA_OF_ASC_NODE":356.2008,"ARG_OF_PERICENTER":152.7124,"MEAN_ANOMALY":207.4234,"EPHEMERIS_TYPE":0,"CLASSIFICATION_TYPE":"U","NORAD_CAT_ID":67899,"ELEMENT_SET_NO":999,"REV_AT_EPOCH":312,"BSTAR":-0.00081113857,"MEAN_MOTION_DOT":-0.00395612,"MEAN_MOTION_DDOT":5.7709744e-5},{"OBJECT_NAME":"STARLINK-36361","OBJECT_ID":"2026-035X","EPOCH":"2026-03-05T04:22:47.448768","MEAN_MOTION":15.99366009,"ECCENTRICITY":0.00015016,"INCLINATION":97.274,"RA_OF_ASC_NODE":356.2023,"ARG_OF_PERICENTER":55.9723,"MEAN_ANOMALY":304.1698,"EPHEMERIS_TYPE":0,"CLASSIFICATION_TYPE":"U","NORAD_CAT_ID":67900,"ELEMENT_SET_NO":999,"REV_AT_EPOCH":312,"BSTAR":-0.00068670696,"MEAN_MOTION_DOT":-0.0033647,"MEAN_MOTION_DDOT":4.2812383e-5},{"OBJECT_NAME":"STARLINK-36336","OBJECT_ID":"2026-035Y","EPOCH":"2026-03-05T05:49:41.234304","MEAN_MOTION":15.99472127,"ECCENTRICITY":5.545e-5,"INCLINATION":97.2738,"RA_OF_ASC_NODE":356.2721,"ARG_OF_PERICENTER":115.8839,"MEAN_ANOMALY":244.2497,"EPHEMERIS_TYPE":0,"CLASSIFICATION_TYPE":"U","NORAD_CAT_ID":67901,"ELEMENT_SET_NO":999,"REV_AT_EPOCH":313,"BSTAR":-0.00067133726,"MEAN_MOTION_DOT":-0.00330887,"MEAN_MOTION_DDOT":4.1562836e-5},{"OBJECT_NAME":"STARLINK-36876","OBJECT_ID":"2026-035Z","EPOCH":"2026-03-05T05:51:58.940352","MEAN_MOTION":15.99325355,"ECCENTRICITY":0.00017452,"INCLINATION":97.2749,"RA_OF_ASC_NODE":356.2694,"ARG_OF_PERICENTER":60.0174,"MEAN_ANOMALY":300.1277,"EPHEMERIS_TYPE":0,"CLASSIFICATION_TYPE":"U","NORAD_CAT_ID":67902,"ELEMENT_SET_NO":999,"REV_AT_EPOCH":313,"BSTAR":-0.00054203966,"MEAN_MOTION_DOT":-0.00265202,"MEAN_MOTION_DDOT":2.7740052e-5},{"OBJECT_NAME":"STARLINK-36257","OBJECT_ID":"2026-035AA","EPOCH":"2026-03-05T05:50:58.671168","MEAN_MOTION":15.99433747,"ECCENTRICITY":5.304e-5,"INCLINATION":97.2722,"RA_OF_ASC_NODE":356.2749,"ARG_OF_PERICENTER":142.1471,"MEAN_ANOMALY":217.9844,"EPHEMERIS_TYPE":0,"CLASSIFICATION_TYPE":"U","NORAD_CAT_ID":67903,"ELEMENT_SET_NO":999,"REV_AT_EPOCH":313,"BSTAR":0.00024837539,"MEAN_MOTION_DOT":0.00121244,"MEAN_MOTION_DDOT":8.107749e-6},{"OBJECT_NAME":"STARLINK-36814","OBJECT_ID":"2026-036A","EPOCH":"2026-03-05T06:00:02.999808","MEAN_MOTION":15.8204925,"ECCENTRICITY":0.00024403,"INCLINATION":42.9969,"RA_OF_ASC_NODE":277.0184,"ARG_OF_PERICENTER":266.3972,"MEAN_ANOMALY":211.3032,"EPHEMERIS_TYPE":0,"CLASSIFICATION_TYPE":"U","NORAD_CAT_ID":67904,"ELEMENT_SET_NO":999,"REV_AT_EPOCH":293,"BSTAR":-0.00014211546,"MEAN_MOTION_DOT":-0.00030405,"MEAN_MOTION_DDOT":0},{"OBJECT_NAME":"STARLINK-36729","OBJECT_ID":"2026-036B","EPOCH":"2026-03-05T06:00:02.999808","MEAN_MOTION":15.82047827,"ECCENTRICITY":0.00019676,"INCLINATION":42.9968,"RA_OF_ASC_NODE":277.0065,"ARG_OF_PERICENTER":264.9573,"MEAN_ANOMALY":217.0079,"EPHEMERIS_TYPE":0,"CLASSIFICATION_TYPE":"U","NORAD_CAT_ID":67905,"ELEMENT_SET_NO":999,"REV_AT_EPOCH":293,"BSTAR":-0.0001251138,"MEAN_MOTION_DOT":-0.00026837,"MEAN_MOTION_DDOT":0},{"OBJECT_NAME":"STARLINK-36763","OBJECT_ID":"2026-036C","EPOCH":"2026-03-05T06:00:02.999808","MEAN_MOTION":15.81993971,"ECCENTRICITY":0.00017554,"INCLINATION":42.9966,"RA_OF_ASC_NODE":276.9963,"ARG_OF_PERICENTER":257.8264,"MEAN_ANOMALY":228.4332,"EPHEMERIS_TYPE":0,"CLASSIFICATION_TYPE":"U","NORAD_CAT_ID":67906,"ELEMENT_SET_NO":999,"REV_AT_EPOCH":293,"BSTAR":0.00032217999,"MEAN_MOTION_DOT":0.0006777,"MEAN_MOTION_DDOT":0},{"OBJECT_NAME":"STARLINK-36742","OBJECT_ID":"2026-036D","EPOCH":"2026-03-05T06:00:02.999808","MEAN_MOTION":15.81987582,"ECCENTRICITY":0.00019623,"INCLINATION":42.9969,"RA_OF_ASC_NODE":276.9854,"ARG_OF_PERICENTER":259.91,"MEAN_ANOMALY":230.6234,"EPHEMERIS_TYPE":0,"CLASSIFICATION_TYPE":"U","NORAD_CAT_ID":67907,"ELEMENT_SET_NO":999,"REV_AT_EPOCH":293,"BSTAR":0.00036112268,"MEAN_MOTION_DOT":0.00076078,"MEAN_MOTION_DDOT":0},{"OBJECT_NAME":"STARLINK-36827","OBJECT_ID":"2026-036E","EPOCH":"2026-03-05T06:00:02.999808","MEAN_MOTION":15.82038914,"ECCENTRICITY":0.00017153,"INCLINATION":42.9967,"RA_OF_ASC_NODE":276.9745,"ARG_OF_PERICENTER":259.0008,"MEAN_ANOMALY":235.7935,"EPHEMERIS_TYPE":0,"CLASSIFICATION_TYPE":"U","NORAD_CAT_ID":67908,"ELEMENT_SET_NO":999,"REV_AT_EPOCH":293,"BSTAR":-8.9487381e-5,"MEAN_MOTION_DOT":-0.00019355,"MEAN_MOTION_DDOT":0},{"OBJECT_NAME":"STARLINK-36822","OBJECT_ID":"2026-036F","EPOCH":"2026-03-05T06:00:02.999808","MEAN_MOTION":15.81996981,"ECCENTRICITY":0.00018209,"INCLINATION":42.9969,"RA_OF_ASC_NODE":276.9641,"ARG_OF_PERICENTER":259.1087,"MEAN_ANOMALY":239.9717,"EPHEMERIS_TYPE":0,"CLASSIFICATION_TYPE":"U","NORAD_CAT_ID":67909,"ELEMENT_SET_NO":999,"REV_AT_EPOCH":293,"BSTAR":0.00029697694,"MEAN_MOTION_DOT":0.00062397,"MEAN_MOTION_DDOT":0},{"OBJECT_NAME":"STARLINK-36847","OBJECT_ID":"2026-036G","EPOCH":"2026-03-05T06:00:02.999808","MEAN_MOTION":15.82064525,"ECCENTRICITY":0.00014736,"INCLINATION":42.9978,"RA_OF_ASC_NODE":276.9531,"ARG_OF_PERICENTER":266.2194,"MEAN_ANOMALY":237.1214,"EPHEMERIS_TYPE":0,"CLASSIFICATION_TYPE":"U","NORAD_CAT_ID":67910,"ELEMENT_SET_NO":999,"REV_AT_EPOCH":293,"BSTAR":-0.00035797458,"MEAN_MOTION_DOT":-0.00075426,"MEAN_MOTION_DDOT":0},{"OBJECT_NAME":"STARLINK-36736","OBJECT_ID":"2026-036H","EPOCH":"2026-03-05T06:00:02.999808","MEAN_MOTION":15.82061359,"ECCENTRICITY":0.00014691,"INCLINATION":42.9975,"RA_OF_ASC_NODE":276.9421,"ARG_OF_PERICENTER":298.62,"MEAN_ANOMALY":208.9736,"EPHEMERIS_TYPE":0,"CLASSIFICATION_TYPE":"U","NORAD_CAT_ID":67911,"ELEMENT_SET_NO":999,"REV_AT_EPOCH":293,"BSTAR":-0.00027140506,"MEAN_MOTION_DOT":-0.00057424,"MEAN_MOTION_DDOT":0}]
